OBJECT_NAME,OBJECT_ID,EPOCH,MEAN_MOTION,ECCENTRICITY,INCLINATION,RA_OF_ASC_NODE,ARG_OF_PERICENTER,MEAN_ANOMALY,EPHEMERIS_TYPE,CLASSIFICATION_TYPE,NORAD_CAT_ID,ELEMENT_SET_NO,REV_AT_EPOCH,BSTAR,MEAN_MOTION_DOT,MEAN_MOTION_DDOT
STARLINK-1623,2020-057N,2026-06-03T07:13:25.682016,15.73732836,.0006221,53.0405,196.8266,15.5794,344.5414,0,U,46129,999,32031,.82396E-3,.119513E-2,0
STARLINK-1596,2020-057AA,2026-06-03T06:44:48.627168,15.58722180,.0007112,53.0338,178.9143,14.2001,345.9209,0,U,46141,999,32056,.12639E-2,.99941E-3,0
STARLINK-1597,2020-057AB,2026-06-03T11:13:25.594176,15.73591907,.0004502,53.0414,235.7371,18.3075,341.8104,0,U,46142,999,31977,.80729E-3,.11627E-2,0
STARLINK-1606,2020-057AD,2026-06-03T14:00:16.998912,15.88902376,.0008618,53.0327,188.6543,1.7386,154.3369,0,U,46144,999,590,.11471E-2,.330561E-2,.50842E-4
STARLINK-1608,2020-057AF,2026-06-01T14:30:10.929888,15.35350071,.00034282,53.1598,278.4501,322.9014,37.1751,0,U,46146,999,31904,.1641725E-2,.57236E-3,0
STARLINK-1667,2020-057AQ,2026-06-03T14:00:16.998912,15.88217389,.000804,53.0105,156.9014,43.8910,71.6537,0,U,46155,999,590,.97783E-3,.283111E-2,0
STARLINK-1545,2020-057AR,2026-06-03T14:00:16.998912,15.81659956,.000723,53.0367,193.0033,349.8479,193.0952,0,U,46156,999,595,.96055E-3,.200842E-2,0
STARLINK-1595,2020-057AU,2026-06-03T00:00:02.000160,15.71404804,.00044828,53.0415,240.7382,5.7669,81.1401,0,U,46159,999,598,.26844309E-3,.34467E-3,0
STARLINK-1598,2020-057AV,2026-06-03T11:13:01.395264,15.71270602,.0000265,53.0436,224.5746,259.7001,100.3986,0,U,46160,999,32118,.73674E-3,.9578E-3,0
STARLINK-1626,2020-057BC,2026-06-03T11:03:07.118784,15.71365221,.0003732,53.0411,234.1132,3.2995,356.8046,0,U,46167,999,31980,.76174E-3,.99516E-3,0
STARLINK-1633,2020-057BG,2026-06-03T14:00:16.998912,15.79285341,.0006267,53.0328,194.8272,335.1662,186.7293,0,U,46171,999,599,.10532E-2,.197346E-2,0
STARLINK-1635,2020-057BH,2026-06-03T14:00:16.998912,15.80215175,.0008186,53.0339,192.7894,340.6941,53.1699,0,U,46172,999,595,.11547E-2,.226772E-2,0
STARLINK-1640,2020-057BJ,2026-06-03T14:00:16.998912,15.71290171,.0004776,53.0414,238.8730,8.6286,298.4117,0,U,46173,999,597,.38485E-3,.4953E-3,0
STARLINK-1641,2020-057BK,2026-06-03T14:00:16.998912,15.62034599,.0001191,53.0462,230.1757,54.9425,72.7686,0,U,46174,999,593,.98578E-3,.88197E-3,0
GAOFEN-9 05,2020-058A,2026-06-03T13:17:17.155392,15.31761113,.0009676,97.2090,195.2027,136.1235,224.0777,0,U,46232,999,32152,.46091E-3,.1409E-3,0
SAOCOM 1B,2020-059A,2026-06-03T12:43:28.473888,14.82158172,.0001445,97.8881,340.5714,81.8794,278.2583,0,U,46265,999,31146,.27196E-4,.164E-5,0
GNOMES-1,2020-059B,2026-06-03T09:20:34.699200,15.00250831,.0012952,97.7863,4.7561,59.6757,300.5746,0,U,46266,999,31352,.24847E-3,.3054E-4,0
ATHENA,2020-061D,2026-06-03T04:05:32.413920,15.48626195,.00022173,97.1913,218.5528,92.4306,267.7199,0,U,46275,999,31998,.31221528E-3,.16598E-3,0
NEMO-HD,2020-061F,2026-06-03T12:34:17.219424,15.44304895,.0002664,97.1923,216.6169,96.5952,263.5600,0,U,46277,999,31987,.27088E-3,.12393E-3,0
GHGSAT-C1,2020-061G,2026-06-03T11:14:11.543424,15.70408839,.0002257,97.2108,239.1501,105.6145,254.5367,0,U,46278,999,32132,.34432E-3,.42038E-3,0
NAPA-1,2020-061BA,2026-06-03T11:56:38.141952,15.66155409,.000124,97.2472,228.2459,149.7758,210.3574,0,U,46320,999,31959,.71036E-3,.73319E-3,0
STARLINK-1654,2020-062B,2026-06-03T11:42:08.704800,16.01318247,.0011595,53.0321,262.1973,313.9134,46.0937,0,U,46326,999,31849,.95427E-3,.54185E-2,.14229E-3
STARLINK-1695,2020-062E,2026-06-03T12:27:55.646784,15.71325770,.0001067,53.0418,276.3676,352.2950,7.8051,0,U,46329,999,31829,.81951E-3,.107001E-2,0
STARLINK-1719,2020-062G,2026-06-03T14:00:16.998912,15.76110233,.0005499,53.0356,275.9465,250.2365,78.5972,0,U,46331,999,598,.75949E-3,.122163E-2,0
STARLINK-1759,2020-062R,2026-06-03T14:00:16.998912,15.81861927,.0006748,53.0148,265.7416,310.3304,174.8699,0,U,46340,999,599,.79844E-3,.167735E-2,0
STARLINK-1762,2020-062T,2026-06-02T18:56:49.803648,15.37543932,.00032778,53.1549,333.6912,187.0384,173.0575,0,U,46342,999,31745,.15827356E-2,.59236E-3,0
STARLINK-1764,2020-062U,2026-06-03T10:54:21.487104,16.00944440,.0012055,53.0277,246.8918,326.4156,33.6109,0,U,46343,999,31870,.10925E-2,.607474E-2,.17741E-3
STARLINK-1547,2020-062Y,2026-06-03T14:00:16.998912,15.86356682,.0008262,53.0282,211.5967,4.3130,91.8183,0,U,46347,999,595,.87006E-3,.22835E-2,0
STARLINK-1553,2020-062Z,2026-06-01T14:38:24.627264,15.41056810,.0002845,53.0365,270.8591,57.5279,302.6000,0,U,46348,999,31821,.85075521E-3,.35449E-3,0
STARLINK-1646,2020-062AC,2026-06-03T14:00:16.998912,15.76557418,.0007083,53.0383,272.9367,327.3793,80.4641,0,U,46351,999,592,.26265E-3,.42282E-3,0
