STARLINK-1623           
1 46129U 20057N   26154.30099169  .00119513  00000+0  82396-3 0  9991
2 46129  53.0405 196.8266 0006221  15.5794 344.5414 15.73732836320310
STARLINK-1596           
1 46141U 20057AA  26154.28111837  .00099941  00000+0  12639-2 0  9993
2 46141  53.0338 178.9143 0007112  14.2001 345.9209 15.58722180320569
STARLINK-1597           
1 46142U 20057AB  26154.46765734  .00116270  00000+0  80729-3 0  9996
2 46142  53.0414 235.7371 0004502  18.3075 341.8104 15.73591907319774
STARLINK-1606           
1 46144U 20057AD  26154.58353008  .00330561  50842-4  11471-2 0  9990
2 46144  53.0327 188.6543 0008618   1.7386 154.3369 15.88902376  5908
STARLINK-1608           
1 46146U 20057AF  26152.60429317  .00057236  00000+0  16417-2 0  9996
2 46146  53.1598 278.4501 0003428 322.9014  37.1751 15.35350071319040
STARLINK-1667           
1 46155U 20057AQ  26154.58353008  .00283111  00000+0  97783-3 0  9997
2 46155  53.0105 156.9014 0008040  43.8910  71.6537 15.88217389  5905
STARLINK-1545           
1 46156U 20057AR  26154.58353008  .00200842  00000+0  96055-3 0  9999
2 46156  53.0367 193.0033 0007230 349.8479 193.0952 15.81659956  5956
STARLINK-1595           
1 46159U 20057AU  26154.00002315  .00034467  00000+0  26844-3 0  9998
2 46159  53.0415 240.7382 0004482   5.7669  81.1401 15.71404804  5983
STARLINK-1598           
1 46160U 20057AV  26154.46737726  .00095780  00000+0  73674-3 0  9999
2 46160  53.0436 224.5746 0000265 259.7001 100.3986 15.71270602321180
STARLINK-1626           
1 46167U 20057BC  26154.46049906  .00099516  00000+0  76174-3 0  9991
2 46167  53.0411 234.1132 0003732   3.2995 356.8046 15.71365221319805
STARLINK-1633           
1 46171U 20057BG  26154.58353008  .00197346  00000+0  10532-2 0  9995
2 46171  53.0328 194.8272 0006267 335.1662 186.7293 15.79285341  5996
STARLINK-1635           
1 46172U 20057BH  26154.58353008  .00226772  00000+0  11547-2 0  9999
2 46172  53.0339 192.7894 0008186 340.6941  53.1699 15.80215175  5952
STARLINK-1640           
1 46173U 20057BJ  26154.58353008  .00049530  00000+0  38485-3 0  9996
2 46173  53.0414 238.8730 0004776   8.6286 298.4117 15.71290171  5972
STARLINK-1641           
1 46174U 20057BK  26154.58353008  .00088197  00000+0  98578-3 0  9998
2 46174  53.0462 230.1757 0001191  54.9425  72.7686 15.62034599  5937
GAOFEN-9 05             
1 46232U 20058A   26154.55367078  .00014090  00000+0  46091-3 0  9997
2 46232  97.2090 195.2027 0009676 136.1235 224.0777 15.31761113321522
SAOCOM 1B               
1 46265U 20059A   26154.53019067  .00000164  00000+0  27196-4 0  9997
2 46265  97.8881 340.5714 0001445  81.8794 278.2583 14.82158172311460
GNOMES-1                
1 46266U 20059B   26154.38929050  .00003054  00000+0  24847-3 0  9993
2 46266  97.7863   4.7561 0012952  59.6757 300.5746 15.00250831313521
ATHENA                  
1 46275U 20061D   26154.17051405  .00016598  00000+0  31222-3 0  9995
2 46275  97.1913 218.5528 0002217  92.4306 267.7199 15.48626195319981
NEMO-HD                 
1 46277U 20061F   26154.52381041  .00012393  00000+0  27088-3 0  9992
2 46277  97.1923 216.6169 0002664  96.5952 263.5600 15.44304895319877
GHGSAT-C1               
1 46278U 20061G   26154.46818916  .00042038  00000+0  34432-3 0  9992
2 46278  97.2108 239.1501 0002257 105.6145 254.5367 15.70408839321323
NAPA-1                  
1 46320U 20061BA  26154.49766368  .00073319  00000+0  71036-3 0  9993
2 46320  97.2472 228.2459 0001240 149.7758 210.3574 15.66155409319599
STARLINK-1654           
1 46326U 20062B   26154.48760075  .00541850  14229-3  95427-3 0  9990
2 46326  53.0321 262.1973 0011595 313.9134  46.0937 16.01318247318499
STARLINK-1695           
1 46329U 20062E   26154.51939406  .00107001  00000+0  81951-3 0  9994
2 46329  53.0418 276.3676 0001067 352.2950   7.8051 15.71325770318296
STARLINK-1719           
1 46331U 20062G   26154.58353008  .00122163  00000+0  75949-3 0  9998
2 46331  53.0356 275.9465 0005499 250.2365  78.5972 15.76110233  5988
STARLINK-1759           
1 46340U 20062R   26154.58353008  .00167735  00000+0  79844-3 0  9990
2 46340  53.0148 265.7416 0006748 310.3304 174.8699 15.81861927  5995
STARLINK-1762           
1 46342U 20062T   26153.78946532  .00059236  00000+0  15827-2 0  9999
2 46342  53.1549 333.6912 0003277 187.0384 173.0575 15.37543932317455
STARLINK-1764           
1 46343U 20062U   26154.45441536  .00607474  17741-3  10925-2 0  9990
2 46343  53.0277 246.8918 0012055 326.4156  33.6109 16.00944440318707
STARLINK-1547           
1 46347U 20062Y   26154.58353008  .00228350  00000+0  87006-3 0  9997
2 46347  53.0282 211.5967 0008262   4.3130  91.8183 15.86356682  5955
STARLINK-1553           
1 46348U 20062Z   26152.61000726  .00035449  00000+0  85076-3 0  9996
2 46348  53.0365 270.8591 0002845  57.5279 302.6000 15.41056810318212
STARLINK-1646           
1 46351U 20062AC  26154.58353008  .00042282  00000+0  26265-3 0  9990
2 46351  53.0383 272.9367 0007083 327.3793  80.4641 15.76557418  5929
